[{"OBJECT_NAME":"ONEWEB-0220","OBJECT_ID":"2021-031Y","EPOCH":"2025-10-15T20:01:45.291072","MEAN_MOTION":13.14504537,"ECCENTRICITY":0.0002054,"INCLINATION":87.9049,"RA_OF_ASC_NODE":338.3598,"ARG_OF_PERICENTER":92.8109,"MEAN_ANOMALY":267.3255,"EPHEMERIS_TYPE":0,"CLASSIFICATION_TYPE":"U","NORAD_CAT_ID":48232,"ELEMENT_SET_NO":999,"REV_AT_EPOCH":21630,"BSTAR":0.00060095,"MEAN_MOTION_DOT":2.36e-6,"MEAN_MOTION_DDOT":0},{"OBJECT_NAME":"ONEWEB-0165","OBJECT_ID":"2021-031Z","EPOCH":"2025-10-15T04:16:22.938528","MEAN_MOTION":13.14502677,"ECCENTRICITY":0.00020803,"INCLINATION":87.9029,"RA_OF_ASC_NODE":338.5256,"ARG_OF_PERICENTER":96.1931,"MEAN_ANOMALY":263.9436,"EPHEMERIS_TYPE":0,"CLASSIFICATION_TYPE":"U","NORAD_CAT_ID":48233,"ELEMENT_SET_NO":999,"REV_AT_EPOCH":21617,"BSTAR":-0.00062594674,"MEAN_MOTION_DOT":-2.19e-6,"MEAN_MOTION_DDOT":0},{"OBJECT_NAME":"ONEWEB-0199","OBJECT_ID":"2021-031AA","EPOCH":"2025-10-15T20:20:01.178304","MEAN_MOTION":13.14503908,"ECCENTRICITY":0.0001749,"INCLINATION":87.9044,"RA_OF_ASC_NODE":338.3617,"ARG_OF_PERICENTER":100.1675,"MEAN_ANOMALY":259.9652,"EPHEMERIS_TYPE":0,"CLASSIFICATION_TYPE":"U","NORAD_CAT_ID":48234,"ELEMENT_SET_NO":999,"REV_AT_EPOCH":21616,"BSTAR":-0.00034677,"MEAN_MOTION_DOT":-1.16e-6,"MEAN_MOTION_DDOT":0},{"OBJECT_NAME":"ONEWEB-0203","OBJECT_ID":"2021-031AB","EPOCH":"2025-10-15T20:06:19.943712","MEAN_MOTION":13.14502067,"ECCENTRICITY":0.0001928,"INCLINATION":87.9043,"RA_OF_ASC_NODE":338.365,"ARG_OF_PERICENTER":105.8151,"MEAN_ANOMALY":254.3192,"EPHEMERIS_TYPE":0,"CLASSIFICATION_TYPE":"U","NORAD_CAT_ID":48235,"ELEMENT_SET_NO":999,"REV_AT_EPOCH":21617,"BSTAR":0.00026233,"MEAN_MOTION_DOT":1.1e-6,"MEAN_MOTION_DDOT":0},{"OBJECT_NAME":"ONEWEB-0197","OBJECT_ID":"2021-031AC","EPOCH":"2025-10-15T04:52:43.247712","MEAN_MOTION":13.1450308,"ECCENTRICITY":0.00018237,"INCLINATION":87.9041,"RA_OF_ASC_NODE":338.4894,"ARG_OF_PERICENTER":87.9026,"MEAN_ANOMALY":272.2313,"EPHEMERIS_TYPE":0,"CLASSIFICATION_TYPE":"U","NORAD_CAT_ID":48236,"ELEMENT_SET_NO":999,"REV_AT_EPOCH":21600,"BSTAR":0.00036886638,"MEAN_MOTION_DOT":1.5e-6,"MEAN_MOTION_DDOT":0},{"OBJECT_NAME":"ONEWEB-0194","OBJECT_ID":"2021-031AD","EPOCH":"2025-10-15T13:31:16.855392","MEAN_MOTION":13.14502908,"ECCENTRICITY":0.0001671,"INCLINATION":87.904,"RA_OF_ASC_NODE":338.4334,"ARG_OF_PERICENTER":103.6143,"MEAN_ANOMALY":256.5173,"EPHEMERIS_TYPE":0,"CLASSIFICATION_TYPE":"U","NORAD_CAT_ID":48237,"ELEMENT_SET_NO":999,"REV_AT_EPOCH":21622,"BSTAR":-0.00031054,"MEAN_MOTION_DOT":-1.02e-6,"MEAN_MOTION_DDOT":0},{"OBJECT_NAME":"ONEWEB-0193","OBJECT_ID":"2021-031AE","EPOCH":"2025-10-15T04:46:03.956160","MEAN_MOTION":13.14502881,"ECCENTRICITY":0.00015772,"INCLINATION":87.9034,"RA_OF_ASC_NODE":338.5034,"ARG_OF_PERICENTER":106.8149,"MEAN_ANOMALY":253.3154,"EPHEMERIS_TYPE":0,"CLASSIFICATION_TYPE":"U","NORAD_CAT_ID":48238,"ELEMENT_SET_NO":999,"REV_AT_EPOCH":21612,"BSTAR":0.00026356022,"MEAN_MOTION_DOT":1.1e-6,"MEAN_MOTION_DDOT":0},{"OBJECT_NAME":"ONEWEB-0191","OBJECT_ID":"2021-031AF","EPOCH":"2025-10-15T14:10:05.522016","MEAN_MOTION":13.1450377,"ECCENTRICITY":0.0001823,"INCLINATION":87.9053,"RA_OF_ASC_NODE":338.4089,"ARG_OF_PERICENTER":97.5597,"MEAN_ANOMALY":262.574,"EPHEMERIS_TYPE":0,"CLASSIFICATION_TYPE":"U","NORAD_CAT_ID":48239,"ELEMENT_SET_NO":999,"REV_AT_EPOCH":21603,"BSTAR":0.00060479,"MEAN_MOTION_DOT":2.37e-6,"MEAN_MOTION_DDOT":0},{"OBJECT_NAME":"ONEWEB-0195","OBJECT_ID":"2021-031AG","EPOCH":"2025-10-15T04:28:56.306784","MEAN_MOTION":13.1449979,"ECCENTRICITY":0.0002207,"INCLINATION":87.9047,"RA_OF_ASC_NODE":338.4848,"ARG_OF_PERICENTER":100.1725,"MEAN_ANOMALY":259.9654,"EPHEMERIS_TYPE":0,"CLASSIFICATION_TYPE":"U","NORAD_CAT_ID":48240,"ELEMENT_SET_NO":999,"REV_AT_EPOCH":21596,"BSTAR":-0.0024637825,"MEAN_MOTION_DOT":-9.01e-6,"MEAN_MOTION_DDOT":0},{"OBJECT_NAME":"ONEWEB-0201","OBJECT_ID":"2021-031AH","EPOCH":"2025-10-15T20:38:30.359040","MEAN_MOTION":13.14502612,"ECCENTRICITY":0.0002117,"INCLINATION":87.9039,"RA_OF_ASC_NODE":338.4003,"ARG_OF_PERICENTER":90.6813,"MEAN_ANOMALY":269.456,"EPHEMERIS_TYPE":0,"CLASSIFICATION_TYPE":"U","NORAD_CAT_ID":48241,"ELEMENT_SET_NO":999,"REV_AT_EPOCH":21628,"BSTAR":-0.00064998,"MEAN_MOTION_DOT":-2.28e-6,"MEAN_MOTION_DDOT":0},{"OBJECT_NAME":"ONEWEB-0207","OBJECT_ID":"2021-031AJ","EPOCH":"2025-10-15T20:09:45.173088","MEAN_MOTION":13.14502083,"ECCENTRICITY":0.0001939,"INCLINATION":87.9043,"RA_OF_ASC_NODE":338.3601,"ARG_OF_PERICENTER":91.1659,"MEAN_ANOMALY":268.9693,"EPHEMERIS_TYPE":0,"CLASSIFICATION_TYPE":"U","NORAD_CAT_ID":48242,"ELEMENT_SET_NO":999,"REV_AT_EPOCH":21619,"BSTAR":5.9236e-5,"MEAN_MOTION_DOT":3.5e-7,"MEAN_MOTION_DDOT":0},{"OBJECT_NAME":"ONEWEB-0208","OBJECT_ID":"2021-031AK","EPOCH":"2025-10-15T14:14:39.983712","MEAN_MOTION":13.14503958,"ECCENTRICITY":0.0002065,"INCLINATION":87.9044,"RA_OF_ASC_NODE":338.425,"ARG_OF_PERICENTER":100.1867,"MEAN_ANOMALY":259.9496,"EPHEMERIS_TYPE":0,"CLASSIFICATION_TYPE":"U","NORAD_CAT_ID":48243,"ELEMENT_SET_NO":999,"REV_AT_EPOCH":21617,"BSTAR":0.00078522,"MEAN_MOTION_DOT":3.04e-6,"MEAN_MOTION_DDOT":0},{"OBJECT_NAME":"ONEWEB-0200","OBJECT_ID":"2021-031AL","EPOCH":"2025-10-15T20:40:34.870944","MEAN_MOTION":13.14501649,"ECCENTRICITY":0.0001999,"INCLINATION":87.9042,"RA_OF_ASC_NODE":338.3616,"ARG_OF_PERICENTER":97.8155,"MEAN_ANOMALY":262.3202,"EPHEMERIS_TYPE":0,"CLASSIFICATION_TYPE":"U","NORAD_CAT_ID":48244,"ELEMENT_SET_NO":999,"REV_AT_EPOCH":21613,"BSTAR":-0.00074968,"MEAN_MOTION_DOT":-2.65e-6,"MEAN_MOTION_DDOT":0},{"OBJECT_NAME":"ONEWEB-0217","OBJECT_ID":"2021-031AM","EPOCH":"2025-10-15T13:44:58.900416","MEAN_MOTION":13.14502787,"ECCENTRICITY":0.0002221,"INCLINATION":87.905,"RA_OF_ASC_NODE":338.4082,"ARG_OF_PERICENTER":102.2133,"MEAN_ANOMALY":257.9245,"EPHEMERIS_TYPE":0,"CLASSIFICATION_TYPE":"U","NORAD_CAT_ID":48245,"ELEMENT_SET_NO":999,"REV_AT_EPOCH":21604,"BSTAR":8.0591e-5,"MEAN_MOTION_DOT":4.3e-7,"MEAN_MOTION_DDOT":0},{"OBJECT_NAME":"ONEWEB-0211","OBJECT_ID":"2021-045A","EPOCH":"2025-10-15T18:42:51.753024","MEAN_MOTION":13.16086841,"ECCENTRICITY":0.0001912,"INCLINATION":87.8983,"RA_OF_ASC_NODE":307.903,"ARG_OF_PERICENTER":104.1703,"MEAN_ANOMALY":255.964,"EPHEMERIS_TYPE":0,"CLASSIFICATION_TYPE":"U","NORAD_CAT_ID":48767,"ELEMENT_SET_NO":999,"REV_AT_EPOCH":21229,"BSTAR":-0.0001274,"MEAN_MOTION_DOT":-3.5e-7,"MEAN_MOTION_DDOT":0},{"OBJECT_NAME":"ONEWEB-0223","OBJECT_ID":"2021-045B","EPOCH":"2025-10-15T19:42:21.318912","MEAN_MOTION":13.15548181,"ECCENTRICITY":0.0001869,"INCLINATION":87.8973,"RA_OF_ASC_NODE":307.9513,"ARG_OF_PERICENTER":108.0156,"MEAN_ANOMALY":252.1178,"EPHEMERIS_TYPE":0,"CLASSIFICATION_TYPE":"U","NORAD_CAT_ID":48768,"ELEMENT_SET_NO":999,"REV_AT_EPOCH":21227,"BSTAR":0.00015341,"MEAN_MOTION_DOT":7.1e-7,"MEAN_MOTION_DDOT":0},{"OBJECT_NAME":"ONEWEB-0230","OBJECT_ID":"2021-045C","EPOCH":"2025-10-15T19:01:16.683744","MEAN_MOTION":13.15547005,"ECCENTRICITY":0.0001717,"INCLINATION":87.8965,"RA_OF_ASC_NODE":307.989,"ARG_OF_PERICENTER":91.4453,"MEAN_ANOMALY":268.6874,"EPHEMERIS_TYPE":0,"CLASSIFICATION_TYPE":"U","NORAD_CAT_ID":48769,"ELEMENT_SET_NO":999,"REV_AT_EPOCH":21253,"BSTAR":-0.00015714,"MEAN_MOTION_DOT":-4.6e-7,"MEAN_MOTION_DDOT":0},{"OBJECT_NAME":"ONEWEB-0237","OBJECT_ID":"2021-045D","EPOCH":"2025-10-15T18:45:18.578592","MEAN_MOTION":13.15548234,"ECCENTRICITY":0.000176,"INCLINATION":87.8976,"RA_OF_ASC_NODE":307.9893,"ARG_OF_PERICENTER":102.6422,"MEAN_ANOMALY":257.4905,"EPHEMERIS_TYPE":0,"CLASSIFICATION_TYPE":"U","NORAD_CAT_ID":48770,"ELEMENT_SET_NO":999,"REV_AT_EPOCH":21225,"BSTAR":-0.00031301,"MEAN_MOTION_DOT":-1.05e-6,"MEAN_MOTION_DDOT":0},{"OBJECT_NAME":"ONEWEB-0235","OBJECT_ID":"2021-045E","EPOCH":"2025-10-15T19:58:19.602912","MEAN_MOTION":13.15548401,"ECCENTRICITY":0.0001821,"INCLINATION":87.8974,"RA_OF_ASC_NODE":307.9503,"ARG_OF_PERICENTER":109.4981,"MEAN_ANOMALY":250.6346,"EPHEMERIS_TYPE":0,"CLASSIFICATION_TYPE":"U","NORAD_CAT_ID":48771,"ELEMENT_SET_NO":999,"REV_AT_EPOCH":21225,"BSTAR":0.00019841,"MEAN_MOTION_DOT":8.8e-7,"MEAN_MOTION_DDOT":0},{"OBJECT_NAME":"ONEWEB-0242","OBJECT_ID":"2021-045F","EPOCH":"2025-10-15T19:49:11.736192","MEAN_MOTION":13.15546915,"ECCENTRICITY":0.0001692,"INCLINATION":87.8982,"RA_OF_ASC_NODE":307.9404,"ARG_OF_PERICENTER":97.6027,"MEAN_ANOMALY":262.5296,"EPHEMERIS_TYPE":0,"CLASSIFICATION_TYPE":"U","NORAD_CAT_ID":48772,"ELEMENT_SET_NO":999,"REV_AT_EPOCH":21229,"BSTAR":0.00030987,"MEAN_MOTION_DOT":1.29e-6,"MEAN_MOTION_DDOT":0},{"OBJECT_NAME":"ONEWEB-0241","OBJECT_ID":"2021-045G","EPOCH":"2025-10-15T19:30:56.928960","MEAN_MOTION":13.15546856,"ECCENTRICITY":0.0002107,"INCLINATION":87.8968,"RA_OF_ASC_NODE":307.9865,"ARG_OF_PERICENTER":104.9579,"MEAN_ANOMALY":255.1785,"EPHEMERIS_TYPE":0,"CLASSIFICATION_TYPE":"U","NORAD_CAT_ID":48773,"ELEMENT_SET_NO":999,"REV_AT_EPOCH":21220,"BSTAR":0.00028947,"MEAN_MOTION_DOT":1.22e-6,"MEAN_MOTION_DDOT":0},{"OBJECT_NAME":"ONEWEB-0243","OBJECT_ID":"2021-045H","EPOCH":"2025-10-15T20:16:34.336704","MEAN_MOTION":13.1554762,"ECCENTRICITY":0.0001655,"INCLINATION":87.898,"RA_OF_ASC_NODE":307.9862,"ARG_OF_PERICENTER":106.0308,"MEAN_ANOMALY":254.1005,"EPHEMERIS_TYPE":0,"CLASSIFICATION_TYPE":"U","NORAD_CAT_ID":48774,"ELEMENT_SET_NO":999,"REV_AT_EPOCH":21223,"BSTAR":-4.4364e-5,"MEAN_MOTION_DOT":-4.0e-8,"MEAN_MOTION_DDOT":0},{"OBJECT_NAME":"ONEWEB-0222","OBJECT_ID":"2021-045J","EPOCH":"2025-10-15T19:52:37.394976","MEAN_MOTION":13.15548463,"ECCENTRICITY":0.0001858,"INCLINATION":87.8979,"RA_OF_ASC_NODE":307.9412,"ARG_OF_PERICENTER":98.8738,"MEAN_ANOMALY":261.2603,"EPHEMERIS_TYPE":0,"CLASSIFICATION_TYPE":"U","NORAD_CAT_ID":48775,"ELEMENT_SET_NO":999,"REV_AT_EPOCH":21227,"BSTAR":0.00024333,"MEAN_MOTION_DOT":1.04e-6,"MEAN_MOTION_DDOT":0}]
